{
  "type": "FeatureCollection",
  "features": [
    {
      "type": "Feature",
      "properties": {
        "norad_id": 51444,
        "name": "CSG-2",
        "group": "resource",
        "lat": -9.656363582395446,
        "lon": -14.633101806229668,
        "alt_km": 627.0103744282078,
        "timestamp": "2025-12-11T08:58:26.772080+00:00",
        "meta_object_name": "CSG-2",
        "meta_object_id": "2022-008A",
        "meta_epoch": "2025-12-11T04:52:51.073824",
        "meta_mean_motion": 14.82160896,
        "meta_eccentricity": 0.000151,
        "meta_inclination": 97.8805,
        "meta_ra_of_asc_node": 166.5494,
        "meta_arg_of_pericenter": 83.2326,
        "meta_mean_anomaly": 276.9059,
        "meta_ephemeris_type": 0,
        "meta_classification_type": "U",
        "meta_norad_cat_id": 51444,
        "meta_element_set_no": 999,
        "meta_rev_at_epoch": 20874,
        "meta_bstar": 0.00011478,
        "meta_mean_motion_dot": 8.62e-06,
        "meta_mean_motion_ddot": 0,
        "tle_line1": "1 51444U 22008A   25345.20336891  .00000862  00000+0  11478-3 0  9990",
        "tle_line2": "2 51444  97.8805 166.5494 0001510  83.2326 276.9059 14.82160896208747"
      },
      "geometry": {
        "type": "Point",
        "coordinates": [
          -14.633101806229668,
          -9.656363582395446
        ]
      }
    },
    {
      "type": "Feature",
      "properties": {
        "norad_id": 52912,
        "name": "GAOFEN-12 03",
        "group": "resource",
        "lat": 60.25603497970347,
        "lon": 66.72237400334573,
        "alt_km": 623.8476612932,
        "timestamp": "2025-12-11T08:58:26.772090+00:00",
        "meta_object_name": "GAOFEN-12 03",
        "meta_object_id": "2022-069A",
        "meta_epoch": "2025-12-11T05:11:36.539232",
        "meta_mean_motion": 14.79603258,
        "meta_eccentricity": 0.000228,
        "meta_inclination": 97.8478,
        "meta_ra_of_asc_node": 232.6006,
        "meta_arg_of_pericenter": 63.0388,
        "meta_mean_anomaly": 297.1056,
        "meta_ephemeris_type": 0,
        "meta_classification_type": "U",
        "meta_norad_cat_id": 52912,
        "meta_element_set_no": 999,
        "meta_rev_at_epoch": 18681,
        "meta_bstar": 0.00023591,
        "meta_mean_motion_dot": 1.717e-05,
        "meta_mean_motion_ddot": 0,
        "tle_line1": "1 52912U 22069A   25345.21639513  .00001717  00000+0  23591-3 0  9995",
        "tle_line2": "2 52912  97.8478 232.6006 0002280  63.0388 297.1056 14.79603258186812"
      },
      "geometry": {
        "type": "Point",
        "coordinates": [
          66.72237400334573,
          60.25603497970347
        ]
      }
    },
    {
      "type": "Feature",
      "properties": {
        "norad_id": 54754,
        "name": "SWOT",
        "group": "resource",
        "lat": 54.25143551956873,
        "lon": 91.05417355583299,
        "alt_km": 887.6387600177295,
        "timestamp": "2025-12-11T08:58:26.772118+00:00",
        "meta_object_name": "SWOT",
        "meta_object_id": "2022-173A",
        "meta_epoch": "2025-12-11T04:57:19.479744",
        "meta_mean_motion": 14.00174301,
        "meta_eccentricity": 3.28e-05,
        "meta_inclination": 77.6105,
        "meta_ra_of_asc_node": 289.0594,
        "meta_arg_of_pericenter": 117.6405,
        "meta_mean_anomaly": 242.478,
        "meta_ephemeris_type": 0,
        "meta_classification_type": "U",
        "meta_norad_cat_id": 54754,
        "meta_element_set_no": 999,
        "meta_rev_at_epoch": 15284,
        "meta_bstar": 3.8093e-05,
        "meta_mean_motion_dot": 5.4e-07,
        "meta_mean_motion_ddot": 0,
        "tle_line1": "1 54754U 22173A   25345.20647546  .00000054  00000+0  38093-4 0  9998",
        "tle_line2": "2 54754  77.6105 289.0594 0000328 117.6405 242.4780 14.00174301152845"
      },
      "geometry": {
        "type": "Point",
        "coordinates": [
          91.05417355583299,
          54.25143551956873
        ]
      }
    },
    {
      "type": "Feature",
      "properties": {
        "norad_id": 57654,
        "name": "GAOFEN-12 04",
        "group": "resource",
        "lat": -70.57380384418849,
        "lon": -75.6252462258442,
        "alt_km": 638.3588783526056,
        "timestamp": "2025-12-11T08:58:26.772131+00:00",
        "meta_object_name": "GAOFEN-12 04",
        "meta_object_id": "2023-123A",
        "meta_epoch": "2025-12-11T04:25:52.179744",
        "meta_mean_motion": 14.7969288,
        "meta_eccentricity": 0.0001352,
        "meta_inclination": 97.9116,
        "meta_ra_of_asc_node": 260.9654,
        "meta_arg_of_pericenter": 73.6894,
        "meta_mean_anomaly": 286.4466,
        "meta_ephemeris_type": 0,
        "meta_classification_type": "U",
        "meta_norad_cat_id": 57654,
        "meta_element_set_no": 999,
        "meta_rev_at_epoch": 12482,
        "meta_bstar": 0.00031123,
        "meta_mean_motion_dot": 2.286e-05,
        "meta_mean_motion_ddot": 0,
        "tle_line1": "1 57654U 23123A   25345.18463171  .00002286  00000+0  31123-3 0  9998",
        "tle_line2": "2 57654  97.9116 260.9654 0001352  73.6894 286.4466 14.79692880124829"
      },
      "geometry": {
        "type": "Point",
        "coordinates": [
          -75.6252462258442,
          -70.57380384418849
        ]
      }
    },
    {
      "type": "Feature",
      "properties": {
        "norad_id": 59065,
        "name": "PARS 1",
        "group": "resource",
        "lat": 23.344861686790907,
        "lon": -46.96569943041168,
        "alt_km": 437.77783740595805,
        "timestamp": "2025-12-11T08:58:26.772141+00:00",
        "meta_object_name": "PARS 1",
        "meta_object_id": "2024-039Q",
        "meta_epoch": "2025-12-11T04:11:48.228864",
        "meta_mean_motion": 15.40916821,
        "meta_eccentricity": 0.0012625,
        "meta_inclination": 97.4637,
        "meta_ra_of_asc_node": 316.0747,
        "meta_arg_of_pericenter": 76.8847,
        "meta_mean_anomaly": 283.3808,
        "meta_ephemeris_type": 0,
        "meta_classification_type": "U",
        "meta_norad_cat_id": 59065,
        "meta_element_set_no": 999,
        "meta_rev_at_epoch": 9964,
        "meta_bstar": 0.00042262,
        "meta_mean_motion_dot": 0.00017357,
        "meta_mean_motion_ddot": 0,
        "tle_line1": "1 59065U 24039Q   25345.17486376  .00017357  00000+0  42262-3 0  9995",
        "tle_line2": "2 59065  97.4637 316.0747 0012625  76.8847 283.3808 15.40916821 99644"
      },
      "geometry": {
        "type": "Point",
        "coordinates": [
          -46.96569943041168,
          23.344861686790907
        ]
      }
    },
    {
      "type": "Feature",
      "properties": {
        "norad_id": 59371,
        "name": "RESURS-P 4",
        "group": "resource",
        "lat": -29.30817155769362,
        "lon": 107.63132987001646,
        "alt_km": 476.68519216953337,
        "timestamp": "2025-12-11T08:58:26.772152+00:00",
        "meta_object_name": "RESURS-P 4",
        "meta_object_id": "2024-061A",
        "meta_epoch": "2025-12-11T04:55:39.605664",
        "meta_mean_motion": 15.32065078,
        "meta_eccentricity": 0.0001637,
        "meta_inclination": 97.2542,
        "meta_ra_of_asc_node": 291.5667,
        "meta_arg_of_pericenter": 52.7666,
        "meta_mean_anomaly": 307.3725,
        "meta_ephemeris_type": 0,
        "meta_classification_type": "U",
        "meta_norad_cat_id": 59371,
        "meta_element_set_no": 999,
        "meta_rev_at_epoch": 9497,
        "meta_bstar": 0.00019672,
        "meta_mean_motion_dot": 6.014e-05,
        "meta_mean_motion_ddot": 0,
        "tle_line1": "1 59371U 24061A   25345.20531951  .00006014  00000+0  19672-3 0  9991",
        "tle_line2": "2 59371  97.2542 291.5667 0001637  52.7666 307.3725 15.32065078 94974"
      },
      "geometry": {
        "type": "Point",
        "coordinates": [
          107.63132987001646,
          -29.30817155769362
        ]
      }
    },
    {
      "type": "Feature",
      "properties": {
        "norad_id": 59625,
        "name": "LEGION 1",
        "group": "resource",
        "lat": 28.56705930721925,
        "lon": -115.851295815655,
        "alt_km": 518.1089455694628,
        "timestamp": "2025-12-11T08:58:26.772163+00:00",
        "meta_object_name": "LEGION 1",
        "meta_object_id": "2024-081A",
        "meta_epoch": "2025-12-11T05:08:33.751392",
        "meta_mean_motion": 15.16455976,
        "meta_eccentricity": 0.0004059,
        "meta_inclination": 97.5211,
        "meta_ra_of_asc_node": 59.8653,
        "meta_arg_of_pericenter": 324.6839,
        "meta_mean_anomaly": 35.4124,
        "meta_ephemeris_type": 0,
        "meta_classification_type": "U",
        "meta_norad_cat_id": 59625,
        "meta_element_set_no": 999,
        "meta_rev_at_epoch": 8904,
        "meta_bstar": 0.00041765,
        "meta_mean_motion_dot": 8.063e-05,
        "meta_mean_motion_ddot": 0,
        "tle_line1": "1 59625U 24081A   25345.21427953  .00008063  00000+0  41765-3 0  9996",
        "tle_line2": "2 59625  97.5211  59.8653 0004059 324.6839  35.4124 15.16455976 89042"
      },
      "geometry": {
        "type": "Point",
        "coordinates": [
          -115.851295815655,
          28.56705930721925
        ]
      }
    }
  ]
}